NORAD_CAT_ID,OBJECT_NAME,OBJECT_TYPE,EPOCH,MEAN_MOTION,ECCENTRICITY,INCLINATION,RA_OF_ASC_NODE,ARG_OF_PERICENTER,MEAN_ANOMALY,BSTAR,MEAN_MOTION_DOT,MEAN_MOTION_DDOT,TLE_LINE0,TLE_LINE1,TLE_LINE2,SEMIMAJOR_AXIS,PERIOD,APOGEE,PERIGEE,DECAYED
49748.0,STARLINK-3248,PAYLOAD,2023-09-02 13:43:45,15.0884082,0.0001516,53.2205,315.205,95.8738,264.2427,7.0085e-05,8.28e-06,0.0,0 STARLINK-3248,1 49748U 21115AA  23245.57204916  .00000828  00000-0  70085-4 0  9994,2 49748  53.2205 315.2050 0001516  95.8738 264.2427 15.08840820 97896,6917.878,95.438,540.792,538.694,0.0
49748.0,STARLINK-3248,PAYLOAD,2023-09-02 21:40:41,15.08834365,0.0001967,53.2197,313.7176,88.0105,272.1113,-4.4564e-06,-3.59e-06,0.0,0 STARLINK-3248,1 49748U 21115AA  23245.90325828 -.00000359  00000-0 -44564-5 0  9992,2 49748  53.2197 313.7176 0001967  88.0105 272.1113 15.08834365 97943,6917.898,95.438,541.123,538.402,0.0
49748.0,STARLINK-3248,PAYLOAD,2023-09-03 08:48:23,15.08835585,0.0001488,53.22,311.6364,91.8338,268.2824,1.9083e-06,-2.58e-06,0.0,0 STARLINK-3248,1 49748U 21115AA  23246.36693705 -.00000258  00000-0  19083-5 0  9990,2 49748  53.2200 311.6364 0001488  91.8338 268.2824 15.08835585 96907,6917.894,95.438,540.788,538.73,0.0
49748.0,STARLINK-3248,PAYLOAD,2023-09-03 16:45:18,15.0884226,0.0001524,53.2178,310.1477,88.1694,271.9473,7.9834e-05,9.83e-06,0.0,0 STARLINK-3248,1 49748U 21115AA  23246.69813099  .00000983  00000-0  79834-4 0  9999,2 49748  53.2178 310.1477 0001524  88.1694 271.9473 15.08842260 98063,6917.873,95.437,540.793,538.684,0.0
49748.0,STARLINK-3248,PAYLOAD,2023-09-03 21:31:28,15.08830631,8.67e-05,53.2186,309.2564,99.8241,260.2849,-3.645e-05,-8.68e-06,0.0,0 STARLINK-3248,1 49748U 21115AA  23246.89685917 -.00000868  00000-0 -36450-4 0  9998,2 49748  53.2186 309.2564 0000867  99.8241 260.2849 15.08830631 98094,6917.909,95.438,540.374,539.174,0.0
49748.0,STARLINK-3248,PAYLOAD,2023-09-04 10:14:34,15.08830505,0.000106,53.2176,306.8775,94.4502,265.6611,4.877e-06,-2.1e-06,0.0,0 STARLINK-3248,1 49748U 21115AA  23247.42678252 -.00000210  00000-0  48770-5 0  9991,2 49748  53.2176 306.8775 0001060  94.4502 265.6611 15.08830505 97069,6917.909,95.438,540.508,539.041,0.0
49748.0,STARLINK-3248,PAYLOAD,2023-09-05 03:43:48,15.08836514,0.000132,53.2166,303.6057,89.9726,270.1417,0.00011962,1.616e-05,0.0,0 STARLINK-3248,1 49748U 21115AA  23248.15541796  .00001616  00000-0  11962-3 0  9995,2 49748  53.2166 303.6057 0001320  89.9726 270.1417 15.08836514 98288,6917.891,95.438,540.669,538.843,0.0
49748.0,STARLINK-3248,PAYLOAD,2023-09-05 13:16:06,15.0884343,0.000128,53.2164,301.8213,90.3366,269.7773,0.00010776,1.428e-05,0.0,0 STARLINK-3248,1 49748U 21115AA  23248.55285416  .00001428  00000-0  10776-3 0  9996,2 49748  53.2164 301.8213 0001280  90.3366 269.7773 15.08843430 97239,6917.87,95.437,540.62,538.849,0.0
49748.0,STARLINK-3248,PAYLOAD,2023-09-06 03:34:35,15.08838038,0.0001307,53.216,299.145,92.8681,267.2461,0.00014896,2.083e-05,0.0,0 STARLINK-3248,1 49748U 21115AA  23249.14901780  .00002083  00000-0  14896-3 0  9996,2 49748  53.2160 299.1450 0001307  92.8681 267.2461 15.08838038 97329,6917.886,95.438,540.656,538.847,0.0
49748.0,STARLINK-3248,PAYLOAD,2023-09-07 08:11:31,15.08843793,0.0001301,53.2163,293.791,101.4019,258.712,3.7113e-05,3.03e-06,0.0,0 STARLINK-3248,1 49748U 21115AA  23250.34133560  .00000303  00000-0  37113-4 0  9994,2 49748  53.2163 293.7910 0001301 101.4019 258.7120 15.08843793 98613,6917.869,95.437,540.634,538.834,0.0
49748.0,STARLINK-3248,PAYLOAD,2023-09-08 08:02:18,15.08838001,0.0001331,53.2163,289.3312,96.6977,263.4167,2.3613e-05,8.8e-07,0.0,0 STARLINK-3248,1 49748U 21115AA  23251.33494009  .00000088  00000-0  23613-4 0  9992,2 49748  53.2163 289.3312 0001331  96.6977 263.4167 15.08838001 98767,6917.886,95.438,540.672,538.831,0.0
49748.0,STARLINK-3248,PAYLOAD,2023-09-08 12:48:28,15.08838147,0.0001469,53.2166,288.4387,107.1445,252.9708,2.696e-05,1.41e-06,0.0,0 STARLINK-3248,1 49748U 21115AA  23251.53365963  .00000141  00000-0  26960-4 0  9998,2 49748  53.2166 288.4387 0001469 107.1445 252.9708 15.08838147 97687,6917.886,95.438,540.767,538.735,0.0
49748.0,STARLINK-3248,PAYLOAD,2023-09-08 19:10:00,15.08833883,0.0001404,53.2165,287.249,100.2355,259.8795,3.4153e-05,2.56e-06,0.0,0 STARLINK-3248,1 49748U 21115AA  23251.79862230  .00000256  00000-0  34153-4 0  9995,2 49748  53.2165 287.2490 0001404 100.2355 259.8795 15.08833883 97720,6917.899,95.438,540.735,538.793,0.0
49748.0,STARLINK-3248,PAYLOAD,2023-09-09 12:39:15,15.08839216,0.0001342,53.216,283.9775,94.2498,265.8647,6.8232e-05,7.98e-06,0.0,0 STARLINK-3248,1 49748U 21115AA  23252.52725991  .00000798  00000-0  68232-4 0  9995,2 49748  53.2160 283.9775 0001342  94.2498 265.8647 15.08839216 97836,6917.883,95.438,540.676,538.819,0.0
49748.0,STARLINK-3248,PAYLOAD,2023-09-10 09:19:16,15.08838694,0.0001415,53.217,280.1132,90.6277,269.4877,8.0553e-05,9.94e-06,0.0,0 STARLINK-3248,1 49748U 21115AA  23253.38838239  .00000994  00000-0  80553-4 0  9998,2 49748  53.2170 280.1132 0001415  90.6277 269.4877 15.08838694 97967,6917.884,95.438,540.728,538.771,0.0
49748.0,STARLINK-3248,PAYLOAD,2023-09-11 02:48:30,15.08837274,0.0001446,53.2168,276.842,84.7245,275.3912,9.3793e-05,1.205e-05,0.0,0 STARLINK-3248,1 49748U 21115AA  23254.11702475  .00001205  00000-0  93793-4 0  9998,2 49748  53.2168 276.8420 0001446  84.7245 275.3912 15.08837274 99184,6917.889,95.438,540.754,538.753,0.0
49748.0,STARLINK-3248,PAYLOAD,2023-09-11 09:10:03,15.08844012,0.0001431,53.2167,275.6529,85.9188,274.1968,5.4207e-05,5.75e-06,0.0,0 STARLINK-3248,1 49748U 21115AA  23254.38198146  .00000575  00000-0  54207-4 0  9997,2 49748  53.2167 275.6529 0001431  85.9188 274.1968 15.08844012 98111,6917.868,95.437,540.723,538.743,0.0
49748.0,STARLINK-3248,PAYLOAD,2023-09-12 07:25:27,15.08842297,0.0001518,53.2167,271.4898,81.9766,278.1398,6.9735e-05,8.22e-06,0.0,0 STARLINK-3248,1 49748U 21115AA  23255.30934252  .00000822  00000-0  69735-4 0  9993,2 49748  53.2167 271.4898 0001518  81.9766 278.1398 15.08842297 99360,6917.873,95.437,540.789,538.688,0.0
49748.0,STARLINK-3248,PAYLOAD,2023-09-12 13:46:59,15.08846617,0.0001477,53.2165,270.2997,84.454,275.6621,9.752e-05,1.265e-05,0.0,0 STARLINK-3248,1 49748U 21115AA  23255.57429827  .00001265  00000-0  97520-4 0  9994,2 49748  53.2165 270.2997 0001477  84.4540 275.6621 15.08846617 98299,6917.86,95.437,540.747,538.703,0.0
49748.0,STARLINK-3248,PAYLOAD,2023-09-13 10:26:59,15.08855808,0.0001643,53.2168,266.4323,97.6408,262.4771,3.6746e-05,2.97e-06,0.0,0 STARLINK-3248,1 49748U 21115AA  23256.43541162  .00000297  00000-0  36746-4 0  9994,2 49748  53.2168 266.4323 0001643  97.6408 262.4771 15.08855808 98423,6917.832,95.437,540.834,538.56,0.0
49748.0,STARLINK-3248,PAYLOAD,2023-09-13 18:23:55,15.0884136,0.0001596,53.2164,264.9408,134.6916,225.4206,9.8013e-06,-1.32e-06,0.0,0 STARLINK-3248,1 49748U 21115AA  23256.76661791 -.00000132  00000-0  98013-5 0  9996,2 49748  53.2164 264.9408 0001596 134.6916 225.4206 15.08841360 98474,6917.876,95.437,540.845,538.637,0.0
49748.0,STARLINK-3248,PAYLOAD,2023-09-14 00:45:29,15.08834057,0.0001704,53.2169,263.7569,98.1646,261.954,-1.1912e-05,-4.78e-06,0.0,0 STARLINK-3248,1 49748U 21115AA  23257.03158819 -.00000478  00000-0 -11912-4 0  9995,2 49748  53.2169 263.7569 0001704  98.1646 261.9540 15.08834057 99628,6917.899,95.438,540.942,538.585,0.0
49748.0,STARLINK-3248,PAYLOAD,2023-09-14 07:07:02,15.08828583,0.0001535,53.2166,262.5672,107.7486,252.3674,-8.1901e-05,-1.591e-05,0.0,0 STARLINK-3248,1 49748U 21115AA  23257.29655380 -.00001591  00000-0 -81901-4 0  9990,2 49748  53.2166 262.5672 0001535 107.7486 252.3674 15.08828583 99661,6917.915,95.438,540.842,538.718,0.0
49748.0,STARLINK-3248,PAYLOAD,2023-09-15 03:47:02,15.08845194,0.0001321,53.2168,258.7033,97.5142,262.6,-1.2824e-05,-4.92e-06,0.0,0 STARLINK-3248,1 49748U 21115AA  23258.15766464 -.00000492  00000-0 -12824-4 0  9999,2 49748  53.2168 258.7033 0001321  97.5142 262.6000 15.08845194 99797,6917.865,95.437,540.643,538.816,0.0
49748.0,STARLINK-3248,PAYLOAD,2023-09-15 06:57:48,15.08849476,0.0001472,53.2167,258.1081,102.7752,257.3405,5.461e-05,5.81e-06,0.0,0 STARLINK-3248,1 49748U 21115AA  23258.29014040  .00000581  00000-0  54610-4 0  9996,2 49748  53.2167 258.1081 0001472 102.7752 257.3405 15.08849476 98703,6917.851,95.437,540.735,538.698,0.0
49748.0,STARLINK-3248,PAYLOAD,2023-09-16 00:27:03,15.08828804,0.000151,53.2173,254.8397,98.8115,261.3048,0.00015281,2.144e-05,0.0,0 STARLINK-3248,1 49748U 21115AA  23259.01879282  .00002144  00000-0  15281-3 0  9991,2 49748  53.2173 254.8397 0001510  98.8115 261.3048 15.08828804 99929,6917.915,95.438,540.824,538.735,0.0
49748.0,STARLINK-3248,PAYLOAD,2023-09-16 09:59:22,15.08833495,0.0001522,53.2173,253.0561,99.2928,260.8236,0.00015873,2.239e-05,0.0,0 STARLINK-3248,1 49748U 21115AA  23259.41623248  .00002239  00000-0  15873-3 0  9996,2 49748  53.2173 253.0561 0001522  99.2928 260.8236 15.08833495 98871,6917.9,95.438,540.818,538.712,0.0
49748.0,STARLINK-3248,PAYLOAD,2023-09-17 09:50:09,15.08844709,0.0001559,53.2171,248.5918,99.1284,260.9884,5.8315e-05,6.4e-06,0.0,0 STARLINK-3248,1 49748U 21115AA  23260.40982968  .00000640  00000-0  58315-4 0  9997,2 49748  53.2171 248.5918 0001559  99.1284 260.9884 15.08844709100131,6917.866,95.437,540.809,538.653,0.0
49748.0,STARLINK-3248,PAYLOAD,2023-09-18 06:30:10,15.08841014,0.0001515,53.217,244.7255,91.037,269.0796,8.2124e-05,1.019e-05,0.0,0 STARLINK-3248,1 49748U 21115AA  23261.27095296  .00001019  00000-0  82124-4 0  9998,2 49748  53.2170 244.7255 0001515  91.0370 269.0796 15.08841014100263,6917.877,95.437,540.79,538.694,0.0
49748.0,STARLINK-3248,PAYLOAD,2023-09-18 11:16:19,15.08845575,0.0001533,53.2171,243.833,91.1757,268.9411,0.00011677,1.571e-05,0.0,0 STARLINK-3248,1 49748U 21115AA  23261.46966903  .00001571  00000-0  11677-3 0  9998,2 49748  53.2171 243.8330 0001533  91.1757 268.9411 15.08845575 99184,6917.863,95.437,540.789,538.668,0.0
